FLOCK 4G-24             
1 62637U 25009AE  26068.72509072  .00010513  00000+0  38996-3 0  9991
2 62637  97.4061 151.5140 0001802 280.2808  79.8228 15.27784978 63732
STARLINK-34844          
1 66486U 25263B   26068.10939454  .00045992  00000+0  16706-2 0  9995
2 66486  43.0041 353.6766 0001789 255.4562 104.6092 15.27577164 18763
